start=new Date('2022-09-07T00:00:00.000Z').valueOf();
sats=[{"APOAPSIS":"415.215","EPOCH":"2022-09-06T22:00:00.999936","LAUNCH_DATE":"2022-08-12","TLE_LINE2":"2 53494  97.6557   9.3090 0002035  63.6068 127.6569 15.50991107  1304","PERIOD":"92.844","SITE":"AFWTR","CENTER_NAME":"EARTH","ARG_OF_PERICENTER":"63.6068","REV_AT_EPOCH":"130","MEAN_MOTION_DDOT":"0.0000000000000","RA_OF_ASC_NODE":"9.3090","ECCENTRICITY":"0.00020350","MEAN_MOTION":"15.50991107","OBJECT_NAME":"STARLINK-4340","INCLINATION":"97.6557","NORAD_CAT_ID":"53494","MEAN_ELEMENT_THEORY":"SGP4","TIME_SYSTEM":"UTC","SEMIMAJOR_AXIS":"6791.968","ELEMENT_SET_NO":"999","MEAN_ANOMALY":"127.6569","EPHEMERIS_TYPE":"0","BSTAR":"-0.02317100000000","GP_ID":"211923476","OBJECT_ID":"2022-099AF","MEAN_MOTION_DOT":"-0.01222687","DECAY_DATE":null,"REF_FRAME":"TEME","COUNTRY_CODE":"US","OBJECT_TYPE":"PAYLOAD","TLE_LINE1":"1 53494U 22099AF  22249.91667824 -.01222687  00000-0 -23171-1 0  9994","PERIAPSIS":"412.451","RCS_SIZE":"LARGE","CLASSIFICATION_TYPE":"U","FILE":"3561419"},{"SEMIMAJOR_AXIS":"6791.037","ELEMENT_SET_NO":"999","TIME_SYSTEM":"UTC","MEAN_ELEMENT_THEORY":"SGP4","NORAD_CAT_ID":"53495","INCLINATION":"97.6556","OBJECT_NAME":"STARLINK-4429","MEAN_MOTION":"15.51310002","ECCENTRICITY":"0.00020280","RA_OF_ASC_NODE":"9.3065","MEAN_MOTION_DDOT":"0.0000000000000","REV_AT_EPOCH":"130","ARG_OF_PERICENTER":"78.0877","PERIOD":"92.825","SITE":"AFWTR","CENTER_NAME":"EARTH","TLE_LINE2":"2 53495  97.6556   9.3065 0002028  78.0877 117.4476 15.51310002  1300","EPOCH":"2022-09-06T22:00:00.999936","LAUNCH_DATE":"2022-08-12","APOAPSIS":"414.279","FILE":"3561419","CLASSIFICATION_TYPE":"U","RCS_SIZE":"LARGE","PERIAPSIS":"411.525","TLE_LINE1":"1 53495U 22099AG  22249.91667824 -.01081727  00000-0 -20347-1 0  9995","OBJECT_TYPE":"PAYLOAD","COUNTRY_CODE":"US","REF_FRAME":"TEME","DECAY_DATE":null,"MEAN_MOTION_DOT":"-0.01081727","OBJECT_ID":"2022-099AG","GP_ID":"211924198","BSTAR":"-0.02034700000000","EPHEMERIS_TYPE":"0","MEAN_ANOMALY":"117.4476"},{"COUNTRY_CODE":"US","PERIAPSIS":"412.463","TLE_LINE1":"1 53496U 22099AH  22249.91667824 -.01003275  00000-0 -18939-1 0  9992","OBJECT_TYPE":"PAYLOAD","FILE":"3561419","CLASSIFICATION_TYPE":"U","RCS_SIZE":"LARGE","MEAN_ANOMALY":"111.3307","GP_ID":"211923631","BSTAR":"-0.01893900000000","EPHEMERIS_TYPE":"0","DECAY_DATE":null,"MEAN_MOTION_DOT":"-0.01003275","OBJECT_ID":"2022-099AH","REF_FRAME":"TEME","MEAN_MOTION":"15.51008226","ECCENTRICITY":"0.00019430","OBJECT_NAME":"STARLINK-4465","NORAD_CAT_ID":"53496","MEAN_ELEMENT_THEORY":"SGP4","INCLINATION":"97.6557","SEMIMAJOR_AXIS":"6791.918","ELEMENT_SET_NO":"999","TIME_SYSTEM":"UTC","APOAPSIS":"415.103","TLE_LINE2":"2 53496  97.6557   9.3073 0001943  81.7451 111.3307 15.51008226  1303","LAUNCH_DATE":"2022-08-12","EPOCH":"2022-09-06T22:00:00.999936","MEAN_MOTION_DDOT":"0.0000000000000","ARG_OF_PERICENTER":"81.7451","REV_AT_EPOCH":"130","CENTER_NAME":"EARTH","SITE":"AFWTR","PERIOD":"92.843","RA_OF_ASC_NODE":"9.3073"},{"CLASSIFICATION_TYPE":"U","FILE":"3561419","RCS_SIZE":"LARGE","TLE_LINE1":"1 53497U 22099AJ  22249.91667824 -.01062292  00000-0 -19731-1 0  9998","PERIAPSIS":"410.580","OBJECT_TYPE":"PAYLOAD","COUNTRY_CODE":"US","REF_FRAME":"TEME","DECAY_DATE":null,"OBJECT_ID":"2022-099AJ","MEAN_MOTION_DOT":"-0.01062292","BSTAR":"-0.01973100000000","GP_ID":"211924353","EPHEMERIS_TYPE":"0","MEAN_ANOMALY":"130.3280","SEMIMAJOR_AXIS":"6790.159","ELEMENT_SET_NO":"999","TIME_SYSTEM":"UTC","INCLINATION":"97.6551","MEAN_ELEMENT_THEORY":"SGP4","NORAD_CAT_ID":"53497","OBJECT_NAME":"STARLINK-4453","ECCENTRICITY":"0.00021270","MEAN_MOTION":"15.51610993","RA_OF_ASC_NODE":"9.3051","MEAN_MOTION_DDOT":"0.0000000000000","CENTER_NAME":"EARTH","SITE":"AFWTR","PERIOD":"92.807","ARG_OF_PERICENTER":"66.8690","REV_AT_EPOCH":"130","TLE_LINE2":"2 53497  97.6551   9.3051 0002127  66.8690 130.3280 15.51610993  1309","EPOCH":"2022-09-06T22:00:00.999936","LAUNCH_DATE":"2022-08-12","APOAPSIS":"413.468"},{"CLASSIFICATION_TYPE":"U","FILE":"3561419","RCS_SIZE":"LARGE","COUNTRY_CODE":"US","TLE_LINE1":"1 53498U 22099AK  22249.91667824 -.01241986  00000-0 -23309-1 0  9994","PERIAPSIS":"411.530","OBJECT_TYPE":"PAYLOAD","DECAY_DATE":null,"OBJECT_ID":"2022-099AK","MEAN_MOTION_DOT":"-0.01241986","REF_FRAME":"TEME","MEAN_ANOMALY":"128.7751","BSTAR":"-0.02330900000000","GP_ID":"211923890","EPHEMERIS_TYPE":"0","INCLINATION":"97.6554","NORAD_CAT_ID":"53498","MEAN_ELEMENT_THEORY":"SGP4","SEMIMAJOR_AXIS":"6791.051","ELEMENT_SET_NO":"999","TIME_SYSTEM":"UTC","ECCENTRICITY":"0.00020400","MEAN_MOTION":"15.51305430","OBJECT_NAME":"STARLINK-4439","MEAN_MOTION_DDOT":"0.0000000000000","CENTER_NAME":"EARTH","SITE":"AFWTR","PERIOD":"92.825","ARG_OF_PERICENTER":"65.8531","REV_AT_EPOCH":"130","RA_OF_ASC_NODE":"9.3073","APOAPSIS":"414.301","TLE_LINE2":"2 53498  97.6554   9.3073 0002040  65.8531 128.7751 15.51305430  1305","EPOCH":"2022-09-06T22:00:00.999936","LAUNCH_DATE":"2022-08-12"},{"REF_FRAME":"TEME","OBJECT_ID":"2022-099AL","MEAN_MOTION_DOT":"-0.00906928","DECAY_DATE":null,"EPHEMERIS_TYPE":"0","BSTAR":"-0.01691900000000","GP_ID":"211924404","MEAN_ANOMALY":"124.9627","RCS_SIZE":"LARGE","CLASSIFICATION_TYPE":"U","FILE":"3561419","OBJECT_TYPE":"PAYLOAD","TLE_LINE1":"1 53499U 22099AL  22249.91667824 -.00906928  00000-0 -16919-1 0  9997","PERIAPSIS":"411.040","COUNTRY_CODE":"US","RA_OF_ASC_NODE":"9.3045","SITE":"AFWTR","PERIOD":"92.813","CENTER_NAME":"EARTH","REV_AT_EPOCH":"130","ARG_OF_PERICENTER":"73.0834","MEAN_MOTION_DDOT":"0.0000000000000","LAUNCH_DATE":"2022-08-12","EPOCH":"2022-09-06T22:00:00.999936","TLE_LINE2":"2 53499  97.6552   9.3045 0001912  73.0834 124.9627 15.51503090  1309","APOAPSIS":"413.637","TIME_SYSTEM":"UTC","ELEMENT_SET_NO":"999","SEMIMAJOR_AXIS":"6790.474","INCLINATION":"97.6552","NORAD_CAT_ID":"53499","MEAN_ELEMENT_THEORY":"SGP4","OBJECT_NAME":"STARLINK-4454","ECCENTRICITY":"0.00019120","MEAN_MOTION":"15.51503090"},{"OBJECT_TYPE":"PAYLOAD","PERIAPSIS":"411.596","TLE_LINE1":"1 53500U 22099AM  22249.91667824 -.01044635  00000-0 -19584-1 0  9990","COUNTRY_CODE":"US","RCS_SIZE":"LARGE","FILE":"3561419","CLASSIFICATION_TYPE":"U","EPHEMERIS_TYPE":"0","GP_ID":"211924044","BSTAR":"-0.01958400000000","MEAN_ANOMALY":"117.5973","REF_FRAME":"TEME","MEAN_MOTION_DOT":"-0.01044635","OBJECT_ID":"2022-099AM","DECAY_DATE":null,"OBJECT_NAME":"STARLINK-4455","MEAN_MOTION":"15.51308110","ECCENTRICITY":"0.00019320","TIME_SYSTEM":"UTC","SEMIMAJOR_AXIS":"6791.043","ELEMENT_SET_NO":"999","NORAD_CAT_ID":"53500","MEAN_ELEMENT_THEORY":"SGP4","INCLINATION":"97.6559","LAUNCH_DATE":"2022-08-12","EPOCH":"2022-09-06T22:00:00.999936","TLE_LINE2":"2 53500  97.6559   9.3056 0001932  78.7452 117.5973 15.51308110  1309","APOAPSIS":"414.220","RA_OF_ASC_NODE":"9.3056","ARG_OF_PERICENTER":"78.7452","REV_AT_EPOCH":"130","SITE":"AFWTR","CENTER_NAME":"EARTH","PERIOD":"92.825","MEAN_MOTION_DDOT":"0.0000000000000"},{"FILE":"3561419","CLASSIFICATION_TYPE":"U","RCS_SIZE":"LARGE","COUNTRY_CODE":"US","PERIAPSIS":"410.392","TLE_LINE1":"1 53501U 22099AN  22249.91667824 -.00746038  00000-0 -13557-1 0  9990","OBJECT_TYPE":"PAYLOAD","DECAY_DATE":null,"MEAN_MOTION_DOT":"-0.00746038","OBJECT_ID":"2022-099AN","REF_FRAME":"TEME","MEAN_ANOMALY":"133.6323","GP_ID":"211924559","BSTAR":"-0.01355700000000","EPHEMERIS_TYPE":"0","NORAD_CAT_ID":"53501","MEAN_ELEMENT_THEORY":"SGP4","INCLINATION":"97.6554","SEMIMAJOR_AXIS":"6789.744","ELEMENT_SET_NO":"999","TIME_SYSTEM":"UTC","MEAN_MOTION":"15.51753209","ECCENTRICITY":"0.00017930","OBJECT_NAME":"STARLINK-4434","MEAN_MOTION_DDOT":"0.0000000000000","REV_AT_EPOCH":"130","ARG_OF_PERICENTER":"66.7617","SITE":"AFWTR","PERIOD":"92.798","CENTER_NAME":"EARTH","RA_OF_ASC_NODE":"9.3033","APOAPSIS":"412.827","TLE_LINE2":"2 53501  97.6554   9.3033 0001793  66.7617 133.6323 15.51753209  1306","EPOCH":"2022-09-06T22:00:00.999936","LAUNCH_DATE":"2022-08-12"},{"MEAN_ANOMALY":"125.7062","BSTAR":"-0.01638800000000","GP_ID":"211923477","EPHEMERIS_TYPE":"0","DECAY_DATE":null,"OBJECT_ID":"2022-099AP","MEAN_MOTION_DOT":"-0.00882942","REF_FRAME":"TEME","COUNTRY_CODE":"US","TLE_LINE1":"1 53502U 22099AP  22249.91667824 -.00882942  00000-0 -16388-1 0  9991","PERIAPSIS":"410.933","OBJECT_TYPE":"PAYLOAD","CLASSIFICATION_TYPE":"U","FILE":"3561419","RCS_SIZE":"LARGE","APOAPSIS":"413.333","TLE_LINE2":"2 53502  97.6551   9.3046 0001767  73.1331 125.7062 15.51573577  1304","EPOCH":"2022-09-06T22:00:00.999936","LAUNCH_DATE":"2022-08-12","MEAN_MOTION_DDOT":"0.0000000000000","CENTER_NAME":"EARTH","SITE":"AFWTR","PERIOD":"92.809","REV_AT_EPOCH":"130","ARG_OF_PERICENTER":"73.1331","RA_OF_ASC_NODE":"9.3046","ECCENTRICITY":"0.00017670","MEAN_MOTION":"15.51573577","OBJECT_NAME":"STARLINK-4435","INCLINATION":"97.6551","MEAN_ELEMENT_THEORY":"SGP4","NORAD_CAT_ID":"53502","SEMIMAJOR_AXIS":"6790.268","ELEMENT_SET_NO":"999","TIME_SYSTEM":"UTC"},{"OBJECT_NAME":"STARLINK-4461","MEAN_MOTION":"15.51758769","ECCENTRICITY":"0.00017790","TIME_SYSTEM":"UTC","ELEMENT_SET_NO":"999","SEMIMAJOR_AXIS":"6789.728","NORAD_CAT_ID":"53503","MEAN_ELEMENT_THEORY":"SGP4","INCLINATION":"97.6549","EPOCH":"2022-09-06T22:00:00.999936","LAUNCH_DATE":"2022-08-12","TLE_LINE2":"2 53503  97.6549   9.3031 0001779  75.4103 125.8463 15.51758769  1305","APOAPSIS":"412.801","RA_OF_ASC_NODE":"9.3031","REV_AT_EPOCH":"130","ARG_OF_PERICENTER":"75.4103","CENTER_NAME":"EARTH","SITE":"AFWTR","PERIOD":"92.798","MEAN_MOTION_DDOT":"0.0000000000000","OBJECT_TYPE":"PAYLOAD","PERIAPSIS":"410.385","TLE_LINE1":"1 53503U 22099AQ  22249.91667824 -.00682061  00000-0 -12467-1 0  9996","COUNTRY_CODE":"US","RCS_SIZE":"LARGE","FILE":"3561419","CLASSIFICATION_TYPE":"U","EPHEMERIS_TYPE":"0","GP_ID":"211924199","BSTAR":"-0.01246700000000","MEAN_ANOMALY":"125.8463","REF_FRAME":"TEME","MEAN_MOTION_DOT":"-0.00682061","OBJECT_ID":"2022-099AQ","DECAY_DATE":null}];
